{
  "type": "FeatureCollection",
  "features": [
    {
      "type": "Feature",
      "properties": {
        "norad_id": 35043,
        "name": "COSMOS 2251 DEB",
        "group": "cosmos-2251-debris",
        "lat": -58.79183654380264,
        "lon": -121.15544132240528,
        "alt_km": 577.3560751486784,
        "timestamp": "2025-12-20T09:36:02.045048+00:00",
        "meta_object_name": "COSMOS 2251 DEB",
        "meta_object_id": "1993-036AHG",
        "meta_epoch": "2025-12-18T09:22:03.578880",
        "meta_mean_motion": 14.77234349,
        "meta_eccentricity": 0.00960967,
        "meta_inclination": 73.9519,
        "meta_ra_of_asc_node": 34.4369,
        "meta_arg_of_pericenter": 242.9214,
        "meta_mean_anomaly": 116.2132,
        "meta_ephemeris_type": 0,
        "meta_classification_type": "U",
        "meta_norad_cat_id": 35043,
        "meta_element_set_no": 999,
        "meta_rev_at_epoch": 67502,
        "meta_bstar": 0.0030540152,
        "meta_mean_motion_dot": 0.00023411,
        "meta_mean_motion_ddot": 0,
        "tle_line1": "1 35043U 93036AHG 25352.39031920  .00023411  00000+0  30540-2 0  9994",
        "tle_line2": "2 35043  73.9519  34.4369 0096096 242.9214 116.2132 14.77234349675024"
      },
      "geometry": {
        "type": "Point",
        "coordinates": [
          -121.15544132240528,
          -58.79183654380264
        ]
      }
    },
    {
      "type": "Feature",
      "properties": {
        "norad_id": 35045,
        "name": "COSMOS 2251 DEB",
        "group": "cosmos-2251-debris",
        "lat": 61.18501779085505,
        "lon": -172.91506211931755,
        "alt_km": 1015.7160657375161,
        "timestamp": "2025-12-20T09:36:02.045058+00:00",
        "meta_object_name": "COSMOS 2251 DEB",
        "meta_object_id": "1993-036AHJ",
        "meta_epoch": "2025-12-19T21:02:40.295328",
        "meta_mean_motion": 14.0040087,
        "meta_eccentricity": 0.0183886,
        "meta_inclination": 73.7193,
        "meta_ra_of_asc_node": 40.0984,
        "meta_arg_of_pericenter": 281.1349,
        "meta_mean_anomaly": 76.9157,
        "meta_ephemeris_type": 0,
        "meta_classification_type": "U",
        "meta_norad_cat_id": 35045,
        "meta_element_set_no": 999,
        "meta_rev_at_epoch": 84743,
        "meta_bstar": 0.00053785,
        "meta_mean_motion_dot": 8.95e-06,
        "meta_mean_motion_ddot": 0,
        "tle_line1": "1 35045U 93036AHJ 25353.87685527  .00000895  00000+0  53785-3 0  9996",
        "tle_line2": "2 35045  73.7193  40.0984 0183886 281.1349  76.9157 14.00400870847431"
      },
      "geometry": {
        "type": "Point",
        "coordinates": [
          -172.91506211931755,
          61.18501779085505
        ]
      }
    },
    {
      "type": "Feature",
      "properties": {
        "norad_id": 35060,
        "name": "COSMOS 2251 DEB",
        "group": "cosmos-2251-debris",
        "lat": 69.42813503529612,
        "lon": -80.15779618214354,
        "alt_km": 753.0050670125429,
        "timestamp": "2025-12-20T09:36:02.045068+00:00",
        "meta_object_name": "COSMOS 2251 DEB",
        "meta_object_id": "1993-036AHP",
        "meta_epoch": "2025-12-17T09:37:48.798336",
        "meta_mean_motion": 14.41611034,
        "meta_eccentricity": 0.00186104,
        "meta_inclination": 74.0362,
        "meta_ra_of_asc_node": 235.6937,
        "meta_arg_of_pericenter": 321.6138,
        "meta_mean_anomaly": 38.3692,
        "meta_ephemeris_type": 0,
        "meta_classification_type": "U",
        "meta_norad_cat_id": 35060,
        "meta_element_set_no": 999,
        "meta_rev_at_epoch": 87309,
        "meta_bstar": 0.00026105938,
        "meta_mean_motion_dot": 8.25e-06,
        "meta_mean_motion_ddot": 0,
        "tle_line1": "1 35060U 93036AHP 25351.40125924  .00000825  00000+0  26106-3 0  9990",
        "tle_line2": "2 35060  74.0362 235.6937 0018610 321.6138  38.3692 14.41611034873096"
      },
      "geometry": {
        "type": "Point",
        "coordinates": [
          -80.15779618214354,
          69.42813503529612
        ]
      }
    },
    {
      "type": "Feature",
      "properties": {
        "norad_id": 35061,
        "name": "COSMOS 2251 DEB",
        "group": "cosmos-2251-debris",
        "lat": -34.831545997860495,
        "lon": -80.55146711246368,
        "alt_km": 666.9011302072877,
        "timestamp": "2025-12-20T09:36:02.045078+00:00",
        "meta_object_name": "COSMOS 2251 DEB",
        "meta_object_id": "1993-036AHQ",
        "meta_epoch": "2025-12-19T05:57:32.306976",
        "meta_mean_motion": 14.67879438,
        "meta_eccentricity": 0.0039387,
        "meta_inclination": 74.0462,
        "meta_ra_of_asc_node": 293.1533,
        "meta_arg_of_pericenter": 42.1528,
        "meta_mean_anomaly": 318.2658,
        "meta_ephemeris_type": 0,
        "meta_classification_type": "U",
        "meta_norad_cat_id": 35061,
        "meta_element_set_no": 999,
        "meta_rev_at_epoch": 88670,
        "meta_bstar": 0.00054945,
        "meta_mean_motion_dot": 3.147e-05,
        "meta_mean_motion_ddot": 0,
        "tle_line1": "1 35061U 93036AHQ 25353.24829059  .00003147  00000+0  54945-3 0  9997",
        "tle_line2": "2 35061  74.0462 293.1533 0039387  42.1528 318.2658 14.67879438886707"
      },
      "geometry": {
        "type": "Point",
        "coordinates": [
          -80.55146711246368,
          -34.831545997860495
        ]
      }
    },
    {
      "type": "Feature",
      "properties": {
        "norad_id": 35062,
        "name": "COSMOS 2251 DEB",
        "group": "cosmos-2251-debris",
        "lat": -42.33210037339712,
        "lon": -85.41756664971624,
        "alt_km": 897.8484652635334,
        "timestamp": "2025-12-20T09:36:02.045088+00:00",
        "meta_object_name": "COSMOS 2251 DEB",
        "meta_object_id": "1993-036AHR",
        "meta_epoch": "2025-12-19T12:18:45.717696",
        "meta_mean_motion": 14.22985103,
        "meta_eccentricity": 0.0126526,
        "meta_inclination": 74.0795,
        "meta_ra_of_asc_node": 81.1015,
        "meta_arg_of_pericenter": 78.7874,
        "meta_mean_anomaly": 282.7463,
        "meta_ephemeris_type": 0,
        "meta_classification_type": "U",
        "meta_norad_cat_id": 35062,
        "meta_element_set_no": 999,
        "meta_rev_at_epoch": 85595,
        "meta_bstar": 0.0011479,
        "meta_mean_motion_dot": 2.783e-05,
        "meta_mean_motion_ddot": 0,
        "tle_line1": "1 35062U 93036AHR 25353.51302914  .00002783  00000+0  11479-2 0  9993",
        "tle_line2": "2 35062  74.0795  81.1015 0126526  78.7874 282.7463 14.22985103855958"
      },
      "geometry": {
        "type": "Point",
        "coordinates": [
          -85.41756664971624,
          -42.33210037339712
        ]
      }
    },
    {
      "type": "Feature",
      "properties": {
        "norad_id": 35065,
        "name": "COSMOS 2251 DEB",
        "group": "cosmos-2251-debris",
        "lat": 1.8828025375716988,
        "lon": -0.5030633685778129,
        "alt_km": 750.3522184876565,
        "timestamp": "2025-12-20T09:36:02.045099+00:00",
        "meta_object_name": "COSMOS 2251 DEB",
        "meta_object_id": "1993-036AHU",
        "meta_epoch": "2025-12-19T06:12:25.656192",
        "meta_mean_motion": 14.4574331,
        "meta_eccentricity": 0.0020018,
        "meta_inclination": 74.0185,
        "meta_ra_of_asc_node": 182.1668,
        "meta_arg_of_pericenter": 306.5523,
        "meta_mean_anomaly": 53.3791,
        "meta_ephemeris_type": 0,
        "meta_classification_type": "U",
        "meta_norad_cat_id": 35065,
        "meta_element_set_no": 999,
        "meta_rev_at_epoch": 68445,
        "meta_bstar": 0.00028971,
        "meta_mean_motion_dot": 1.002e-05,
        "meta_mean_motion_ddot": 0,
        "tle_line1": "1 35065U 93036AHU 25353.25863028  .00001002  00000+0  28971-3 0  9994",
        "tle_line2": "2 35065  74.0185 182.1668 0020018 306.5523  53.3791 14.45743310684450"
      },
      "geometry": {
        "type": "Point",
        "coordinates": [
          -0.5030633685778129,
          1.8828025375716988
        ]
      }
    },
    {
      "type": "Feature",
      "properties": {
        "norad_id": 35071,
        "name": "COSMOS 2251 DEB",
        "group": "cosmos-2251-debris",
        "lat": -10.172069139036081,
        "lon": -19.349889596475762,
        "alt_km": 594.9720487066279,
        "timestamp": "2025-12-20T09:36:02.045109+00:00",
        "meta_object_name": "COSMOS 2251 DEB",
        "meta_object_id": "1993-036AJA",
        "meta_epoch": "2025-12-15T18:34:31.974816",
        "meta_mean_motion": 15.0351885,
        "meta_eccentricity": 0.00682233,
        "meta_inclination": 73.9308,
        "meta_ra_of_asc_node": 167.1964,
        "meta_arg_of_pericenter": 62.71,
        "meta_mean_anomaly": 298.1014,
        "meta_ephemeris_type": 0,
        "meta_classification_type": "U",
        "meta_norad_cat_id": 35071,
        "meta_element_set_no": 999,
        "meta_rev_at_epoch": 67582,
        "meta_bstar": 0.00048026378,
        "meta_mean_motion_dot": 6.858e-05,
        "meta_mean_motion_ddot": 0,
        "tle_line1": "1 35071U 93036AJA 25349.77398119  .00006858  00000+0  48026-3 0  9994",
        "tle_line2": "2 35071  73.9308 167.1964 0068223  62.7100 298.1014 15.03518850675828"
      },
      "geometry": {
        "type": "Point",
        "coordinates": [
          -19.349889596475762,
          -10.172069139036081
        ]
      }
    }
  ]
}